{
  "type": "FeatureCollection",
  "generator": "overpass-turbo",
  "copyright": "The data included in this document is from www.openstreetmap.org. The data is made available under ODbL.",
  "timestamp": "2025-12-28T07:45:00Z",
  "features": [
    {
      "type": "Feature",
      "properties": {
        "@id": "relation/1661274",
        "building": "retail",
        "building:levels": "2",
        "type": "multipolygon"
      },
      "geometry": {
        "type": "MultiPolygon",
        "coordinates": [
          [
            [
              [
                91.6877961,
                26.1949805
              ],
              [
                91.6879706,
                26.1948955
              ],
              [
                91.6880439,
                26.1950037
              ],
              [
                91.6878629,
                26.1950946
              ],
              [
                91.6877961,
                26.1949805
              ]
            ]
          ],
          [
            [
              [
                91.6874547,
                26.1953727
              ],
              [
                91.6875914,
                26.1953015
              ],
              [
                91.6875419,
                26.195228
              ],
              [
                91.6877379,
                26.1951178
              ],
              [
                91.6877939,
                26.1951971
              ],
              [
                91.6879146,
                26.1951352
              ],
              [
                91.6880245,
                26.1952918
              ],
              [
                91.687878,
                26.1953614
              ],
              [
                91.6878198,
                26.1952763
              ],
              [
                91.6876539,
                26.1953653
              ],
              [
                91.6877121,
                26.1954503
              ],
              [
                91.6875569,
                26.1955257
              ],
              [
                91.6874547,
                26.1953727
              ]
            ]
          ]
        ]
      },
      "id": "relation/1661274"
    },
    {
      "type": "Feature",
      "properties": {
        "@id": "way/52435139",
        "alt_name": "IITG;IIT-G;IIT Guwahati",
        "amenity": "university",
        "internet_access": "yes",
        "name": "Indian Institute of Technology Guwahati",
        "name:hi": "भारतीय प्रौद्योगिकी संस्थान गुवाहाटी",
        "name:ml": "ഇന്ത്യൻ ഇൻസ്റ്റിറ്റ്യൂട്ട് ഓഫ് ടെക്നോളജി ഗുവഹാട്ടി",
        "name:te": "ఇండియన్ ఇన్‌స్టిట్యూట్ ఆఫ్ టెక్నాలజీ గౌహతి",
        "operator": "Govt. of India",
        "operator:type": "public/government",
        "website": "https://www.iitg.ac.in/",
        "wikidata": "Q3518863",
        "wikipedia": "en:IIT Guwahati"
      },
      "geometry": {
        "type": "Polygon",
        "coordinates": [
          [
            [
              91.6878388,
              26.1841867
            ],
            [
              91.6879127,
              26.1844508
            ],
            [
              91.6883143,
              26.1845664
            ],
            [
              91.6887774,
              26.1845342
            ],
            [
              91.6890297,
              26.1844118
            ],
            [
              91.689097,
              26.1839997
            ],
            [
              91.6889776,
              26.1836908
            ],
            [
              91.6886659,
              26.1834841
            ],
            [
              91.6892295,
              26.1828537
            ],
            [
              91.6907643,
              26.1828665
            ],
            [
              91.6907517,
              26.1825515
            ],
            [
              91.6919667,
              26.1825645
            ],
            [
              91.6942149,
              26.1823597
            ],
            [
              91.6954533,
              26.1829844
            ],
            [
              91.6960507,
              26.1833633
            ],
            [
              91.6961716,
              26.18344
            ],
            [
              91.6972615,
              26.1838702
            ],
            [
              91.6983454,
              26.1841817
            ],
            [
              91.6984266,
              26.1842675
            ],
            [
              91.6987423,
              26.1843662
            ],
            [
              91.6986736,
              26.1846903
            ],
            [
              91.6993897,
              26.1849478
            ],
            [
              91.6995787,
              26.185239
            ],
            [
              91.6996683,
              26.1852584
            ],
            [
              91.699633,
              26.1854985
            ],
            [
              91.7001382,
              26.1855322
            ],
            [
              91.7001322,
              26.1857592
            ],
            [
              91.7003543,
              26.1857748
            ],
            [
              91.7002692,
              26.1863634
            ],
            [
              91.7005867,
              26.1864288
            ],
            [
              91.7007131,
              26.186439
            ],
            [
              91.7008878,
              26.1864798
            ],
            [
              91.7011355,
              26.1865429
            ],
            [
              91.7011705,
              26.1876173
            ],
            [
              91.7017054,
              26.1878701
            ],
            [
              91.7032221,
              26.1884086
            ],
            [
              91.7032394,
              26.1886021
            ],
            [
              91.7032048,
              26.1887766
            ],
            [
              91.7042369,
              26.1890344
            ],
            [
              91.7038741,
              26.1899702
            ],
            [
              91.7038142,
              26.19041
            ],
            [
              91.703592,
              26.1904727
            ],
            [
              91.7033674,
              26.1909644
            ],
            [
              91.7032217,
              26.1916938
            ],
            [
              91.7028088,
              26.191687
            ],
            [
              91.7028387,
              26.1932637
            ],
            [
              91.7027258,
              26.1963039
            ],
            [
              91.7026511,
              26.1979115
            ],
            [
              91.7017923,
              26.1973709
            ],
            [
              91.7013798,
              26.1971565
            ],
            [
              91.7010097,
              26.1970918
            ],
            [
              91.700608,
              26.19695
            ],
            [
              91.7005196,
              26.1969094
            ],
            [
              91.7004708,
              26.196887
            ],
            [
              91.7004586,
              26.1967565
            ],
            [
              91.6995071,
              26.1966866
            ],
            [
              91.6989596,
              26.1967208
            ],
            [
              91.698782,
              26.1972953
            ],
            [
              91.6987872,
              26.1984653
            ],
            [
              91.6987814,
              26.1988156
            ],
            [
              91.6987921,
              26.1989906
            ],
            [
              91.6975047,
              26.2018409
            ],
            [
              91.6914462,
              26.2006016
            ],
            [
              91.6912617,
              26.2005445
            ],
            [
              91.6911165,
              26.2004252
            ],
            [
              91.6900889,
              26.1985426
            ],
            [
              91.6894991,
              26.1987565
            ],
            [
              91.6875529,
              26.1979566
            ],
            [
              91.6875634,
              26.1971261
            ],
            [
              91.6874281,
              26.1964215
            ],
            [
              91.687402,
              26.1961487
            ],
            [
              91.6872113,
              26.1959634
            ],
            [
              91.6871987,
              26.195455
            ],
            [
              91.6866486,
              26.193324
            ],
            [
              91.6860336,
              26.1907383
            ],
            [
              91.6869961,
              26.188822
            ],
            [
              91.6871906,
              26.1887857
            ],
            [
              91.6876201,
              26.1889114
            ],
            [
              91.6879701,
              26.1886482
            ],
            [
              91.6879338,
              26.1884217
            ],
            [
              91.6879575,
              26.1881055
            ],
            [
              91.6878401,
              26.1879838
            ],
            [
              91.6877986,
              26.1878973
            ],
            [
              91.687805,
              26.1877978
            ],
            [
              91.6879057,
              26.187628
            ],
            [
              91.6880152,
              26.1875013
            ],
            [
              91.6881628,
              26.187464
            ],
            [
              91.6882875,
              26.1875032
            ],
            [
              91.688373,
              26.1875588
            ],
            [
              91.6884173,
              26.1876044
            ],
            [
              91.6885038,
              26.1875984
            ],
            [
              91.6885602,
              26.1875486
            ],
            [
              91.6885697,
              26.1868499
            ],
            [
              91.688496,
              26.1867793
            ],
            [
              91.6882907,
              26.1861138
            ],
            [
              91.6882277,
              26.18577
            ],
            [
              91.6882039,
              26.1854505
            ],
            [
              91.6880991,
              26.184974
            ],
            [
              91.6877908,
              26.1850028
            ],
            [
              91.6876442,
              26.1842111
            ],
            [
              91.6878388,
              26.1841867
            ]
          ]
        ]
      },
      "id": "way/52435139"
    },
    {
      "type": "Feature",
      "properties": {
        "@id": "way/121436087",
        "leisure": "sports_centre",
        "sport": "tennis"
      },
      "geometry": {
        "type": "Polygon",
        "coordinates": [
          [
            [
              91.6951046,
              26.1920696
            ],
            [
              91.6951004,
              26.191852
            ],
            [
              91.6952116,
              26.1918503
            ],
            [
              91.6952158,
              26.1920679
            ],
            [
              91.6951046,
              26.1920696
            ]
          ]
        ]
      },
      "id": "way/121436087"
    },
    {
      "type": "Feature",
      "properties": {
        "@id": "way/121436090",
        "leisure": "sports_centre",
        "sport": "volleyball"
      },
      "geometry": {
        "type": "Polygon",
        "coordinates": [
          [
            [
              91.6972106,
              26.1920737
            ],
            [
              91.6972028,
              26.1917508
            ],
            [
              91.6973828,
              26.1917473
            ],
            [
              91.6973906,
              26.1920702
            ],
            [
              91.6972106,
              26.1920737
            ]
          ]
        ]
      },
      "id": "way/121436090"
    },
    {
      "type": "Feature",
      "properties": {
        "@id": "way/121436098",
        "leisure": "sports_centre",
        "sport": "tennis"
      },
      "geometry": {
        "type": "Polygon",
        "coordinates": [
          [
            [
              91.6947738,
              26.1920748
            ],
            [
              91.6947701,
              26.1918561
            ],
            [
              91.6948848,
              26.1918546
            ],
            [
              91.6948885,
              26.1920732
            ],
            [
              91.6947738,
              26.1920748
            ]
          ]
        ]
      },
      "id": "way/121436098"
    },
    {
      "type": "Feature",
      "properties": {
        "@id": "way/121436099",
        "leisure": "sports_centre",
        "sport": "tennis"
      },
      "geometry": {
        "type": "Polygon",
        "coordinates": [
          [
            [
              91.6947078,
              26.1920761
            ],
            [
              91.6945929,
              26.1920777
            ],
            [
              91.6945892,
              26.1918585
            ],
            [
              91.694704,
              26.1918569
            ],
            [
              91.6947078,
              26.1920761
            ]
          ]
        ]
      },
      "id": "way/121436099"
    },
    {
      "type": "Feature",
      "properties": {
        "@id": "way/121436114",
        "leisure": "sports_centre",
        "sport": "hockey"
      },
      "geometry": {
        "type": "Polygon",
        "coordinates": [
          [
            [
              91.6960281,
              26.1923405
            ],
            [
              91.6960218,
              26.1917835
            ],
            [
              91.6970464,
              26.1917741
            ],
            [
              91.6970528,
              26.1923311
            ],
            [
              91.6960281,
              26.1923405
            ]
          ]
        ]
      },
      "id": "way/121436114"
    },
    {
      "type": "Feature",
      "properties": {
        "@id": "way/121436116",
        "leisure": "sports_centre",
        "sport": "soccer"
      },
      "geometry": {
        "type": "Polygon",
        "coordinates": [
          [
            [
              91.6963973,
              26.193546
            ],
            [
              91.6963426,
              26.192451
            ],
            [
              91.6971306,
              26.1924217
            ],
            [
              91.6971759,
              26.1935083
            ],
            [
              91.6963973,
              26.193546
            ]
          ]
        ]
      },
      "id": "way/121436116"
    },
    {
      "type": "Feature",
      "properties": {
        "@id": "way/121436121",
        "leisure": "pitch",
        "sport": "basketball"
      },
      "geometry": {
        "type": "Polygon",
        "coordinates": [
          [
            [
              91.6977061,
              26.1920618
            ],
            [
              91.6977006,
              26.191768
            ],
            [
              91.6978798,
              26.1917652
            ],
            [
              91.6978827,
              26.1920623
            ],
            [
              91.6977061,
              26.1920618
            ]
          ]
        ]
      },
      "id": "way/121436121"
    },
    {
      "type": "Feature",
      "properties": {
        "@id": "way/121436139",
        "leisure": "pitch",
        "name": "B",
        "sport": "basketball"
      },
      "geometry": {
        "type": "Polygon",
        "coordinates": [
          [
            [
              91.6979318,
              26.1920718
            ],
            [
              91.6979282,
              26.1917753
            ],
            [
              91.6981075,
              26.1917725
            ],
            [
              91.6981085,
              26.1920682
            ],
            [
              91.6979318,
              26.1920718
            ]
          ]
        ]
      },
      "id": "way/121436139"
    },
    {
      "type": "Feature",
      "properties": {
        "@id": "way/121436147",
        "leisure": "sports_centre",
        "sport": "volleyball"
      },
      "geometry": {
        "type": "Polygon",
        "coordinates": [
          [
            [
              91.6974222,
              26.1920709
            ],
            [
              91.6974141,
              26.1917491
            ],
            [
              91.697592,
              26.1917483
            ],
            [
              91.6976028,
              26.1920677
            ],
            [
              91.6974222,
              26.1920709
            ]
          ]
        ]
      },
      "id": "way/121436147"
    },
    {
      "type": "Feature",
      "properties": {
        "@id": "way/121436152",
        "leisure": "sports_centre",
        "sport": "tennis"
      },
      "geometry": {
        "type": "Polygon",
        "coordinates": [
          [
            [
              91.6952817,
              26.1920667
            ],
            [
              91.6952781,
              26.1918496
            ],
            [
              91.6953883,
              26.1918481
            ],
            [
              91.695392,
              26.1920652
            ],
            [
              91.6952817,
              26.1920667
            ]
          ]
        ]
      },
      "id": "way/121436152"
    },
    {
      "type": "Feature",
      "properties": {
        "@id": "way/121451145",
        "building": "hotel",
        "name": "Guest House"
      },
      "geometry": {
        "type": "Polygon",
        "coordinates": [
          [
            [
              91.6946187,
              26.1956501
            ],
            [
              91.6946359,
              26.1955071
            ],
            [
              91.6947415,
              26.1955148
            ],
            [
              91.694748,
              26.1954491
            ],
            [
              91.6946403,
              26.1954413
            ],
            [
              91.694664,
              26.1952905
            ],
            [
              91.6947825,
              26.1953002
            ],
            [
              91.6948342,
              26.1950605
            ],
            [
              91.6950216,
              26.1950779
            ],
            [
              91.6950432,
              26.194987
            ],
            [
              91.6952328,
              26.1950025
            ],
            [
              91.695222,
              26.1951243
            ],
            [
              91.6952931,
              26.1951398
            ],
            [
              91.6953577,
              26.1950296
            ],
            [
              91.6955322,
              26.1950914
            ],
            [
              91.6954956,
              26.1951746
            ],
            [
              91.6956766,
              26.1952325
            ],
            [
              91.6955473,
              26.1954974
            ],
            [
              91.6957025,
              26.1955593
            ],
            [
              91.6956809,
              26.1956385
            ],
            [
              91.6957843,
              26.195683
            ],
            [
              91.6957563,
              26.1957487
            ],
            [
              91.6956895,
              26.1957371
            ],
            [
              91.6956421,
              26.1958357
            ],
            [
              91.6954224,
              26.1957681
            ],
            [
              91.6954504,
              26.1957275
            ],
            [
              91.6953814,
              26.1957062
            ],
            [
              91.695362,
              26.1957681
            ],
            [
              91.6954461,
              26.1959092
            ],
            [
              91.6950798,
              26.1960735
            ],
            [
              91.6949548,
              26.1960503
            ],
            [
              91.6947437,
              26.1957951
            ],
            [
              91.6947631,
              26.1957816
            ],
            [
              91.6947307,
              26.1957449
            ],
            [
              91.6947652,
              26.1957159
            ],
            [
              91.6947307,
              26.1956675
            ],
            [
              91.6946187,
              26.1956501
            ]
          ]
        ]
      },
      "id": "way/121451145"
    },
    {
      "type": "Feature",
      "properties": {
        "@id": "way/121451155",
        "amenity": "library",
        "building": "yes"
      },
      "geometry": {
        "type": "Polygon",
        "coordinates": [
          [
            [
              91.6925328,
              26.1893452
            ],
            [
              91.6925294,
              26.1892878
            ],
            [
              91.6924755,
              26.1892908
            ],
            [
              91.6924755,
              26.1891518
            ],
            [
              91.6925328,
              26.1891518
            ],
            [
              91.6925395,
              26.1890854
            ],
            [
              91.6927684,
              26.1890832
            ],
            [
              91.6927668,
              26.1890505
            ],
            [
              91.6927857,
              26.1890227
            ],
            [
              91.6929202,
              26.1890242
            ],
            [
              91.6929512,
              26.1890582
            ],
            [
              91.6931339,
              26.1890582
            ],
            [
              91.6931512,
              26.1890227
            ],
            [
              91.6932804,
              26.1890211
            ],
            [
              91.6933063,
              26.189078
            ],
            [
              91.6934252,
              26.1890768
            ],
            [
              91.6934252,
              26.1891325
            ],
            [
              91.6935033,
              26.1891328
            ],
            [
              91.6935028,
              26.1892794
            ],
            [
              91.6934287,
              26.1892763
            ],
            [
              91.6934321,
              26.1893428
            ],
            [
              91.6935476,
              26.1894496
            ],
            [
              91.6933563,
              26.1896135
            ],
            [
              91.6931305,
              26.1894063
            ],
            [
              91.6929185,
              26.1894047
            ],
            [
              91.6926996,
              26.1896058
            ],
            [
              91.692522,
              26.1894573
            ],
            [
              91.6925651,
              26.1894217
            ],
            [
              91.6925651,
              26.189349
            ],
            [
              91.6925328,
              26.1893452
            ]
          ]
        ]
      },
      "id": "way/121451155"
    },
    {
      "type": "Feature",
      "properties": {
        "@id": "way/121451168",
        "building": "yes",
        "name": "Transit Complex"
      },
      "geometry": {
        "type": "Polygon",
        "coordinates": [
          [
            [
              91.7015686,
              26.193802
            ],
            [
              91.7015645,
              26.1936731
            ],
            [
              91.7016119,
              26.1936712
            ],
            [
              91.7016077,
              26.1934664
            ],
            [
              91.7015602,
              26.1934643
            ],
            [
              91.7014934,
              26.1934237
            ],
            [
              91.7014934,
              26.1933232
            ],
            [
              91.7015301,
              26.1932961
            ],
            [
              91.701604,
              26.1932904
            ],
            [
              91.7016004,
              26.1931164
            ],
            [
              91.7015796,
              26.1930912
            ],
            [
              91.7015236,
              26.1930893
            ],
            [
              91.7015193,
              26.1930216
            ],
            [
              91.7015753,
              26.1930177
            ],
            [
              91.7015975,
              26.1929792
            ],
            [
              91.701594,
              26.1928071
            ],
            [
              91.7014719,
              26.1928051
            ],
            [
              91.7014654,
              26.1926427
            ],
            [
              91.7015905,
              26.1926427
            ],
            [
              91.7015861,
              26.1924281
            ],
            [
              91.7015257,
              26.1924281
            ],
            [
              91.7015257,
              26.1922927
            ],
            [
              91.7018455,
              26.1922847
            ],
            [
              91.7018455,
              26.1921903
            ],
            [
              91.7022663,
              26.1921761
            ],
            [
              91.7024275,
              26.1922583
            ],
            [
              91.7024236,
              26.1925167
            ],
            [
              91.7026135,
              26.1926103
            ],
            [
              91.7026188,
              26.193021
            ],
            [
              91.7026766,
              26.1930163
            ],
            [
              91.7026661,
              26.1934552
            ],
            [
              91.7025299,
              26.1935634
            ],
            [
              91.7025332,
              26.1938064
            ],
            [
              91.7023558,
              26.1938942
            ],
            [
              91.7018981,
              26.1938942
            ],
            [
              91.7018771,
              26.1938187
            ],
            [
              91.7015686,
              26.193802
            ]
          ]
        ]
      },
      "id": "way/121451168"
    },
    {
      "type": "Feature",
      "properties": {
        "@id": "way/121451174",
        "addr:housename": "Academic Complex",
        "building": "university",
        "building:levels": "4",
        "name": "Academic Complex"
      },
      "geometry": {
        "type": "Polygon",
        "coordinates": [
          [
            [
              91.690902,
              26.1880174
            ],
            [
              91.6907346,
              26.1878705
            ],
            [
              91.6907278,
              26.1875382
            ],
            [
              91.6906706,
              26.1875321
            ],
            [
              91.6905326,
              26.1873992
            ],
            [
              91.6905259,
              26.1869068
            ],
            [
              91.690647,
              26.1867769
            ],
            [
              91.6907346,
              26.1867829
            ],
            [
              91.6907278,
              26.1864567
            ],
            [
              91.6909096,
              26.1863117
            ],
            [
              91.691115,
              26.1863147
            ],
            [
              91.6911184,
              26.1861032
            ],
            [
              91.6908928,
              26.1861092
            ],
            [
              91.6907312,
              26.1859642
            ],
            [
              91.6907144,
              26.1856259
            ],
            [
              91.6906369,
              26.1856289
            ],
            [
              91.690509,
              26.1855171
            ],
            [
              91.6905259,
              26.1849854
            ],
            [
              91.6906538,
              26.1848797
            ],
            [
              91.6907211,
              26.1848797
            ],
            [
              91.6907177,
              26.1846108
            ],
            [
              91.6907278,
              26.1845413
            ],
            [
              91.6908591,
              26.1844084
            ],
            [
              91.6919533,
              26.1844114
            ],
            [
              91.6921014,
              26.1845504
            ],
            [
              91.6921115,
              26.1845987
            ],
            [
              91.6921519,
              26.1845987
            ],
            [
              91.6921384,
              26.184493
            ],
            [
              91.6921788,
              26.1844658
            ],
            [
              91.6925929,
              26.1844718
            ],
            [
              91.6925828,
              26.1846048
            ],
            [
              91.6926299,
              26.1846259
            ],
            [
              91.6926277,
              26.184784
            ],
            [
              91.6921839,
              26.1847766
            ],
            [
              91.6921759,
              26.1848629
            ],
            [
              91.692324,
              26.1850049
            ],
            [
              91.6923442,
              26.1854912
            ],
            [
              91.6922062,
              26.1856272
            ],
            [
              91.6921288,
              26.1856212
            ],
            [
              91.6921288,
              26.1859504
            ],
            [
              91.6919672,
              26.1860985
            ],
            [
              91.6917349,
              26.1860954
            ],
            [
              91.6917349,
              26.1862979
            ],
            [
              91.6919806,
              26.1863009
            ],
            [
              91.6921591,
              26.1864519
            ],
            [
              91.6921624,
              26.1867722
            ],
            [
              91.6922096,
              26.1867722
            ],
            [
              91.6923375,
              26.18689
            ],
            [
              91.692324,
              26.1874186
            ],
            [
              91.6922163,
              26.1875214
            ],
            [
              91.6921513,
              26.1875277
            ],
            [
              91.6921382,
              26.187864
            ],
            [
              91.6919607,
              26.1879997
            ],
            [
              91.690902,
              26.1880174
            ]
          ]
        ]
      },
      "id": "way/121451174"
    },
    {
      "type": "Feature",
      "properties": {
        "@id": "way/121451183",
        "building": "office",
        "building:levels": "4",
        "name": "Administrative Block"
      },
      "geometry": {
        "type": "Polygon",
        "coordinates": [
          [
            [
              91.6919547,
              26.190062
            ],
            [
              91.6917274,
              26.1898619
            ],
            [
              91.691835,
              26.1897594
            ],
            [
              91.6918901,
              26.1897965
            ],
            [
              91.6919401,
              26.1897563
            ],
            [
              91.6919849,
              26.1897903
            ],
            [
              91.6921332,
              26.1896604
            ],
            [
              91.6921987,
              26.1897021
            ],
            [
              91.6922418,
              26.1896635
            ],
            [
              91.692359,
              26.1897563
            ],
            [
              91.6922556,
              26.1898568
            ],
            [
              91.6921935,
              26.1898073
            ],
            [
              91.6921435,
              26.189846
            ],
            [
              91.69224,
              26.1899403
            ],
            [
              91.6921142,
              26.1900563
            ],
            [
              91.6921183,
              26.1902805
            ],
            [
              91.6922487,
              26.1903904
            ],
            [
              91.6921487,
              26.1904801
            ],
            [
              91.6922021,
              26.1905312
            ],
            [
              91.6922469,
              26.1904909
            ],
            [
              91.6923521,
              26.1905838
            ],
            [
              91.692259,
              26.1906766
            ],
            [
              91.6921952,
              26.1906271
            ],
            [
              91.6921401,
              26.1906719
            ],
            [
              91.6919901,
              26.1905435
            ],
            [
              91.6919453,
              26.1905838
            ],
            [
              91.6918884,
              26.1905404
            ],
            [
              91.6918436,
              26.1905822
            ],
            [
              91.6917367,
              26.1904909
            ],
            [
              91.6919628,
              26.1902834
            ],
            [
              91.6919547,
              26.190062
            ]
          ]
        ]
      },
      "id": "way/121451183"
    },
    {
      "type": "Feature",
      "properties": {
        "@id": "way/121455426",
        "building": "dormitory",
        "name": "Dihing Hostel"
      },
      "geometry": {
        "type": "Polygon",
        "coordinates": [
          [
            [
              91.6989221,
              26.1881715
            ],
            [
              91.6989221,
              26.1877939
            ],
            [
              91.6990299,
              26.187658
            ],
            [
              91.6992778,
              26.1876569
            ],
            [
              91.699279,
              26.1876942
            ],
            [
              91.6994776,
              26.1876942
            ],
            [
              91.6994776,
              26.187658
            ],
            [
              91.6994068,
              26.1876579
            ],
            [
              91.6994047,
              26.1876128
            ],
            [
              91.6995584,
              26.1876126
            ],
            [
              91.6998994,
              26.1878261
            ],
            [
              91.6998994,
              26.1882842
            ],
            [
              91.6996021,
              26.1882892
            ],
            [
              91.6996053,
              26.188239
            ],
            [
              91.6992788,
              26.188237
            ],
            [
              91.699279,
              26.1882984
            ],
            [
              91.69904,
              26.1882954
            ],
            [
              91.6989221,
              26.1881715
            ]
          ]
        ]
      },
      "id": "way/121455426"
    },
    {
      "type": "Feature",
      "properties": {
        "@id": "way/121455427",
        "building": "dormitory",
        "name": "Kameng Hostel"
      },
      "geometry": {
        "type": "Polygon",
        "coordinates": [
          [
            [
              91.7006663,
              26.1906901
            ],
            [
              91.7009018,
              26.1898398
            ],
            [
              91.7012599,
              26.1899343
            ],
            [
              91.7017605,
              26.1900303
            ],
            [
              91.7024568,
              26.1901938
            ],
            [
              91.7021917,
              26.1910264
            ],
            [
              91.7016065,
              26.1908848
            ],
            [
              91.7016394,
              26.1907904
            ],
            [
              91.7012778,
              26.1907196
            ],
            [
              91.7012383,
              26.1908081
            ],
            [
              91.7006663,
              26.1906901
            ]
          ]
        ]
      },
      "id": "way/121455427"
    },
    {
      "type": "Feature",
      "properties": {
        "@id": "way/121455432",
        "addr:housename": "Siang Hostel",
        "building": "dormitory",
        "building:levels": "4",
        "name": "Siang Hostel"
      },
      "geometry": {
        "type": "Polygon",
        "coordinates": [
          [
            [
              91.6965404,
              26.1890038
            ],
            [
              91.6968518,
              26.1890001
            ],
            [
              91.6970664,
              26.1890038
            ],
            [
              91.697079,
              26.1894759
            ],
            [
              91.6968854,
              26.1896307
            ],
            [
              91.6967466,
              26.1896307
            ],
            [
              91.6967508,
              26.1895703
            ],
            [
              91.6965404,
              26.189574
            ],
            [
              91.6965446,
              26.1896156
            ],
            [
              91.6963047,
              26.1896118
            ],
            [
              91.6961953,
              26.1894947
            ],
            [
              91.6961995,
              26.1893664
            ],
            [
              91.6965109,
              26.1893626
            ],
            [
              91.6965151,
              26.1892229
            ],
            [
              91.6961911,
              26.1892266
            ],
            [
              91.6961869,
              26.1890982
            ],
            [
              91.6962963,
              26.188985
            ],
            [
              91.6965406,
              26.1889765
            ],
            [
              91.6965404,
              26.1890038
            ]
          ]
        ]
      },
      "id": "way/121455432"
    },
    {
      "type": "Feature",
      "properties": {
        "@id": "way/121455433",
        "building": "dormitory",
        "building:levels": "4",
        "name": "Subansiri Hostel",
        "roof:levels": "1",
        "roof:shape": "double_saltbox"
      },
      "geometry": {
        "type": "Polygon",
        "coordinates": [
          [
            [
              91.6946902,
              26.1926936
            ],
            [
              91.6946835,
              26.1925863
            ],
            [
              91.6946744,
              26.1922409
            ],
            [
              91.6954684,
              26.1922371
            ],
            [
              91.6955233,
              26.1934211
            ],
            [
              91.6946004,
              26.1934448
            ],
            [
              91.6946157,
              26.1930098
            ],
            [
              91.6946109,
              26.1928005
            ],
            [
              91.6946129,
              26.1927259
            ],
            [
              91.6946902,
              26.1926936
            ]
          ]
        ]
      },
      "id": "way/121455433"
    },
    {
      "type": "Feature",
      "properties": {
        "@id": "way/121455436",
        "addr:housename": "Kapili Hostel",
        "building": "dormitory",
        "building:levels": "4",
        "name": "Kapili Hostel",
        "roof:levels": "0",
        "roof:shape": "skillion"
      },
      "geometry": {
        "type": "Polygon",
        "coordinates": [
          [
            [
              91.6959091,
              26.1882675
            ],
            [
              91.6960059,
              26.1881429
            ],
            [
              91.6965825,
              26.1881504
            ],
            [
              91.6967213,
              26.1882637
            ],
            [
              91.6967255,
              26.1887735
            ],
            [
              91.696574,
              26.1887735
            ],
            [
              91.696574,
              26.1887169
            ],
            [
              91.6962458,
              26.1887244
            ],
            [
              91.69625,
              26.188781
            ],
            [
              91.6959933,
              26.188781
            ],
            [
              91.6959049,
              26.1886678
            ],
            [
              91.6959007,
              26.1885356
            ],
            [
              91.6962206,
              26.1885394
            ],
            [
              91.6962163,
              26.1883921
            ],
            [
              91.6959091,
              26.1883883
            ],
            [
              91.6959091,
              26.1882675
            ]
          ]
        ]
      },
      "id": "way/121455436"
    },
    {
      "type": "Feature",
      "properties": {
        "@id": "way/121455439",
        "addr:postcode": "781039",
        "building": "residential",
        "building:levels": "3",
        "name": "Manas Hostel"
      },
      "geometry": {
        "type": "Polygon",
        "coordinates": [
          [
            [
              91.699215,
              26.1885969
            ],
            [
              91.6993092,
              26.1884833
            ],
            [
              91.6995597,
              26.1884688
            ],
            [
              91.6995651,
              26.1885172
            ],
            [
              91.6998829,
              26.1885099
            ],
            [
              91.6998802,
              26.1884688
            ],
            [
              91.7000283,
              26.188464
            ],
            [
              91.700031,
              26.188493
            ],
            [
              91.7001791,
              26.1884954
            ],
            [
              91.700198,
              26.1890054
            ],
            [
              91.700066,
              26.1890078
            ],
            [
              91.7000337,
              26.1890319
            ],
            [
              91.700058,
              26.1890682
            ],
            [
              91.6999987,
              26.1891141
            ],
            [
              91.6999691,
              26.1890875
            ],
            [
              91.6993227,
              26.1890996
            ],
            [
              91.699215,
              26.1889812
            ],
            [
              91.699215,
              26.1885969
            ]
          ]
        ]
      },
      "id": "way/121455439"
    },
    {
      "type": "Feature",
      "properties": {
        "@id": "way/121455441",
        "building": "dormitory",
        "name": "Umiam Hostel"
      },
      "geometry": {
        "type": "Polygon",
        "coordinates": [
          [
            [
              91.7011594,
              26.1888079
            ],
            [
              91.7013632,
              26.1880468
            ],
            [
              91.702915,
              26.1883831
            ],
            [
              91.7027243,
              26.1891501
            ],
            [
              91.7011594,
              26.1888079
            ]
          ]
        ]
      },
      "id": "way/121455441"
    },
    {
      "type": "Feature",
      "properties": {
        "@id": "way/144431212",
        "addr:housename": "Dr. Bhupem Hazarika Auditorium",
        "building": "university",
        "building:levels": "4",
        "name": "Bhupen Hazarika Auditorium",
        "roof:levels": "1",
        "roof:shape": "saltbox",
        "source": "bing sat"
      },
      "geometry": {
        "type": "Polygon",
        "coordinates": [
          [
            [
              91.6929341,
              26.1913006
            ],
            [
              91.6929494,
              26.1911869
            ],
            [
              91.6928821,
              26.1910737
            ],
            [
              91.6928222,
              26.1909773
            ],
            [
              91.6929263,
              26.190869
            ],
            [
              91.6929797,
              26.1906574
            ],
            [
              91.6931767,
              26.1906471
            ],
            [
              91.6932029,
              26.1907868
            ],
            [
              91.6932868,
              26.190978
            ],
            [
              91.6931955,
              26.1911606
            ],
            [
              91.6932133,
              26.191304
            ],
            [
              91.6929341,
              26.1913006
            ]
          ]
        ]
      },
      "id": "way/144431212"
    },
    {
      "type": "Feature",
      "properties": {
        "@id": "way/144431213",
        "leisure": "sports_centre",
        "name": "athletics",
        "wheelchair": "yes"
      },
      "geometry": {
        "type": "Polygon",
        "coordinates": [
          [
            [
              91.6974304,
              26.1926758
            ],
            [
              91.6975158,
              26.1924458
            ],
            [
              91.6976671,
              26.1922924
            ],
            [
              91.6979432,
              26.1922511
            ],
            [
              91.6982587,
              26.1923396
            ],
            [
              91.6983968,
              26.1925755
            ],
            [
              91.6984494,
              26.193018
            ],
            [
              91.698502,
              26.1934604
            ],
            [
              91.6983784,
              26.1936839
            ],
            [
              91.6980393,
              26.1937844
            ],
            [
              91.697606,
              26.1936924
            ],
            [
              91.6975027,
              26.1934899
            ],
            [
              91.6974304,
              26.1926758
            ]
          ]
        ]
      },
      "id": "way/144431213"
    },
    {
      "type": "Feature",
      "properties": {
        "@id": "way/158011014",
        "building": "yes",
        "leisure": "sports_centre",
        "name": "Student Activity Center"
      },
      "geometry": {
        "type": "Polygon",
        "coordinates": [
          [
            [
              91.6956028,
              26.1932521
            ],
            [
              91.6955952,
              26.1927874
            ],
            [
              91.6956645,
              26.1927865
            ],
            [
              91.695663,
              26.192694
            ],
            [
              91.6958738,
              26.1926912
            ],
            [
              91.695961,
              26.1927599
            ],
            [
              91.6959642,
              26.1929548
            ],
            [
              91.6960031,
              26.192982
            ],
            [
              91.6960042,
              26.193047
            ],
            [
              91.695966,
              26.1930704
            ],
            [
              91.6959689,
              26.1932425
            ],
            [
              91.6961346,
              26.1932403
            ],
            [
              91.6961384,
              26.193469
            ],
            [
              91.6960266,
              26.1934705
            ],
            [
              91.6959802,
              26.1935089
            ],
            [
              91.6959025,
              26.1935099
            ],
            [
              91.6958576,
              26.1934727
            ],
            [
              91.6957271,
              26.1934744
            ],
            [
              91.6957234,
              26.1932505
            ],
            [
              91.6956028,
              26.1932521
            ]
          ]
        ]
      },
      "id": "way/158011014"
    },
    {
      "type": "Feature",
      "properties": {
        "@id": "way/267002635",
        "building": "university",
        "building:levels": "2",
        "name": "New Student Activity Center"
      },
      "geometry": {
        "type": "Polygon",
        "coordinates": [
          [
            [
              91.6990277,
              26.1929746
            ],
            [
              91.6989759,
              26.1928006
            ],
            [
              91.6989174,
              26.1926188
            ],
            [
              91.6988775,
              26.192358
            ],
            [
              91.6988445,
              26.1922797
            ],
            [
              91.6988303,
              26.1921901
            ],
            [
              91.6988263,
              26.1921593
            ],
            [
              91.6989027,
              26.1921484
            ],
            [
              91.6991192,
              26.1921849
            ],
            [
              91.6991392,
              26.1922435
            ],
            [
              91.699078,
              26.1922977
            ],
            [
              91.6991094,
              26.1925398
            ],
            [
              91.6992095,
              26.1925321
            ],
            [
              91.6993386,
              26.1929156
            ],
            [
              91.6990277,
              26.1929746
            ]
          ]
        ]
      },
      "id": "way/267002635"
    },
    {
      "type": "Feature",
      "properties": {
        "@id": "way/363651727",
        "amenity": "restaurant",
        "building": "yes",
        "capacity": "200",
        "cuisine": "regional",
        "name": "Food Court"
      },
      "geometry": {
        "type": "Polygon",
        "coordinates": [
          [
            [
              91.6991722,
              26.1922235
            ],
            [
              91.6991808,
              26.1922004
            ],
            [
              91.6993008,
              26.1921927
            ],
            [
              91.699338,
              26.1922389
            ],
            [
              91.6993866,
              26.1922619
            ],
            [
              91.6994123,
              26.1924056
            ],
            [
              91.6994409,
              26.1924133
            ],
            [
              91.6994524,
              26.1924543
            ],
            [
              91.6994324,
              26.1924826
            ],
            [
              91.6994981,
              26.1927801
            ],
            [
              91.6993666,
              26.1928237
            ],
            [
              91.6993094,
              26.1928032
            ],
            [
              91.6992494,
              26.1925903
            ],
            [
              91.6992094,
              26.1923928
            ],
            [
              91.6991722,
              26.1922235
            ]
          ]
        ]
      },
      "id": "way/363651727"
    },
    {
      "type": "Feature",
      "properties": {
        "@id": "way/368852086",
        "building": "dormitory",
        "name": "Brahmaputra Hostel",
        "smoking": "no"
      },
      "geometry": {
        "type": "Polygon",
        "coordinates": [
          [
            [
              91.6998011,
              26.1873999
            ],
            [
              91.6980637,
              26.1857139
            ],
            [
              91.6987112,
              26.185173
            ],
            [
              91.6995967,
              26.1858775
            ],
            [
              91.6998031,
              26.1860972
            ],
            [
              91.7004921,
              26.1869115
            ],
            [
              91.6999055,
              26.1874036
            ],
            [
              91.6998011,
              26.1873999
            ]
          ]
        ]
      },
      "id": "way/368852086"
    },
    {
      "type": "Feature",
      "properties": {
        "@id": "way/405811283",
        "building": "dormitory",
        "name": "Barak Hostel"
      },
      "geometry": {
        "type": "Polygon",
        "coordinates": [
          [
            [
              91.7009968,
              26.189831
            ],
            [
              91.7009018,
              26.1898398
            ],
            [
              91.7011121,
              26.1889573
            ],
            [
              91.702708,
              26.1893111
            ],
            [
              91.70248,
              26.1901415
            ],
            [
              91.701721,
              26.1899754
            ],
            [
              91.7009968,
              26.189831
            ]
          ]
        ]
      },
      "id": "way/405811283"
    },
    {
      "type": "Feature",
      "properties": {
        "@id": "way/455100471",
        "addr:city": "Guwahati",
        "addr:postcode": "781039",
        "addr:street": "IIT Guwahati",
        "building": "dormitory",
        "building:levels": "4",
        "description": "Students' Hostel",
        "name": "Dibang Hostel"
      },
      "geometry": {
        "type": "Polygon",
        "coordinates": [
          [
            [
              91.695852,
              26.1879616
            ],
            [
              91.6958412,
              26.1869941
            ],
            [
              91.6974988,
              26.1870181
            ],
            [
              91.6975149,
              26.1880146
            ],
            [
              91.695852,
              26.1879616
            ]
          ]
        ]
      },
      "id": "way/455100471"
    },
    {
      "type": "Feature",
      "properties": {
        "@id": "way/517935377",
        "building": "university",
        "name": "Mechnical Workshop"
      },
      "geometry": {
        "type": "Polygon",
        "coordinates": [
          [
            [
              91.6894321,
              26.1875464
            ],
            [
              91.6893723,
              26.1864922
            ],
            [
              91.6897137,
              26.1864766
            ],
            [
              91.6897735,
              26.1875308
            ],
            [
              91.6894321,
              26.1875464
            ]
          ]
        ]
      },
      "id": "way/517935377"
    },
    {
      "type": "Feature",
      "properties": {
        "@id": "way/517935378",
        "building": "yes"
      },
      "geometry": {
        "type": "Polygon",
        "coordinates": [
          [
            [
              91.6895154,
              26.1845896
            ],
            [
              91.6895127,
              26.1843078
            ],
            [
              91.6897497,
              26.184306
            ],
            [
              91.6897524,
              26.1845878
            ],
            [
              91.6895154,
              26.1845896
            ]
          ]
        ]
      },
      "id": "way/517935378"
    },
    {
      "type": "Feature",
      "properties": {
        "@id": "way/640770642",
        "addr:housename": "Lohit Hostel",
        "building": "dormitory",
        "building:levels": "4",
        "name": "Lohit Hostel"
      },
      "geometry": {
        "type": "Polygon",
        "coordinates": [
          [
            [
              91.6982006,
              26.1903806
            ],
            [
              91.6979609,
              26.1881316
            ],
            [
              91.6986748,
              26.1880568
            ],
            [
              91.6987842,
              26.1890855
            ],
            [
              91.6988884,
              26.1890808
            ],
            [
              91.6989197,
              26.1893987
            ],
            [
              91.6988311,
              26.1893987
            ],
            [
              91.6988884,
              26.1903479
            ],
            [
              91.6982006,
              26.1903806
            ]
          ]
        ]
      },
      "id": "way/640770642"
    },
    {
      "type": "Feature",
      "properties": {
        "@id": "way/640776537",
        "building": "yes",
        "leisure": "fitness_centre",
        "name": "General Gym"
      },
      "geometry": {
        "type": "Polygon",
        "coordinates": [
          [
            [
              91.6976438,
              26.1913241
            ],
            [
              91.6976438,
              26.1910738
            ],
            [
              91.6977189,
              26.191069
            ],
            [
              91.6977136,
              26.1908379
            ],
            [
              91.6977619,
              26.1908235
            ],
            [
              91.6979603,
              26.1908235
            ],
            [
              91.6979603,
              26.1909101
            ],
            [
              91.6980462,
              26.1909053
            ],
            [
              91.6980462,
              26.1911171
            ],
            [
              91.6979764,
              26.1911171
            ],
            [
              91.6979764,
              26.191223
            ],
            [
              91.6977565,
              26.1912423
            ],
            [
              91.6977511,
              26.1913241
            ],
            [
              91.6976438,
              26.1913241
            ]
          ]
        ]
      },
      "id": "way/640776537"
    },
    {
      "type": "Feature",
      "properties": {
        "@id": "way/684576017",
        "leisure": "pitch",
        "sport": "cricket",
        "surface": "grass"
      },
      "geometry": {
        "type": "Polygon",
        "coordinates": [
          [
            [
              91.6959848,
              26.1913951
            ],
            [
              91.6959559,
              26.1896918
            ],
            [
              91.697231,
              26.1897384
            ],
            [
              91.6972483,
              26.189873
            ],
            [
              91.6974733,
              26.1900439
            ],
            [
              91.6977214,
              26.1900594
            ],
            [
              91.6976752,
              26.1910275
            ],
            [
              91.697606,
              26.191069
            ],
            [
              91.6976118,
              26.1914055
            ],
            [
              91.6959848,
              26.1913951
            ]
          ]
        ]
      },
      "id": "way/684576017"
    },
    {
      "type": "Feature",
      "properties": {
        "@id": "way/684576018",
        "building": "hospital",
        "name": "IITG Hospital",
        "nohousenumber": "yes"
      },
      "geometry": {
        "type": "Polygon",
        "coordinates": [
          [
            [
              91.697456,
              26.1967895
            ],
            [
              91.697381,
              26.1967792
            ],
            [
              91.6973118,
              26.1968724
            ],
            [
              91.6972079,
              26.1968309
            ],
            [
              91.697306,
              26.1966342
            ],
            [
              91.697381,
              26.1964789
            ],
            [
              91.697381,
              26.1962822
            ],
            [
              91.6974906,
              26.1962977
            ],
            [
              91.697606,
              26.1964634
            ],
            [
              91.6975772,
              26.1965825
            ],
            [
              91.6977445,
              26.1966394
            ],
            [
              91.6977964,
              26.1968102
            ],
            [
              91.6975656,
              26.1968775
            ],
            [
              91.697456,
              26.1967895
            ]
          ]
        ]
      },
      "id": "way/684576018"
    },
    {
      "type": "Feature",
      "properties": {
        "@id": "way/684576019",
        "building": "hotel",
        "name": "Guest House"
      },
      "geometry": {
        "type": "Polygon",
        "coordinates": [
          [
            [
              91.6956155,
              26.1963547
            ],
            [
              91.6960829,
              26.1961942
            ],
            [
              91.6963886,
              26.1964427
            ],
            [
              91.6964463,
              26.1966653
            ],
            [
              91.6961175,
              26.1968413
            ],
            [
              91.6960367,
              26.1968982
            ],
            [
              91.6961233,
              26.1970639
            ],
            [
              91.6960252,
              26.1971053
            ],
            [
              91.6957771,
              26.1967999
            ],
            [
              91.6956155,
              26.1963547
            ]
          ]
        ]
      },
      "id": "way/684576019"
    },
    {
      "type": "Feature",
      "properties": {
        "@id": "way/684576022",
        "leisure": "pitch",
        "sport": "basketball"
      },
      "geometry": {
        "type": "Polygon",
        "coordinates": [
          [
            [
              91.7001388,
              26.1880726
            ],
            [
              91.7001388,
              26.1877516
            ],
            [
              91.7003638,
              26.1877516
            ],
            [
              91.7003407,
              26.1880675
            ],
            [
              91.7001388,
              26.1880726
            ]
          ]
        ]
      },
      "id": "way/684576022"
    },
    {
      "type": "Feature",
      "properties": {
        "@id": "way/684576023",
        "building": "university",
        "name": "Conference Hall"
      },
      "geometry": {
        "type": "Polygon",
        "coordinates": [
          [
            [
              91.6922122,
              26.1913528
            ],
            [
              91.6921816,
              26.1910446
            ],
            [
              91.6923686,
              26.1910309
            ],
            [
              91.6923686,
              26.1909556
            ],
            [
              91.6925556,
              26.1909282
            ],
            [
              91.6925632,
              26.1909967
            ],
            [
              91.6927579,
              26.1909453
            ],
            [
              91.6927655,
              26.1912775
            ],
            [
              91.6922122,
              26.1913528
            ]
          ]
        ]
      },
      "id": "way/684576023"
    },
    {
      "type": "Feature",
      "properties": {
        "@id": "way/684576024",
        "building": "university",
        "name": "Lecture Halls"
      },
      "geometry": {
        "type": "Polygon",
        "coordinates": [
          [
            [
              91.6912085,
              26.1892913
            ],
            [
              91.6911589,
              26.1887229
            ],
            [
              91.6913688,
              26.1887023
            ],
            [
              91.6914031,
              26.1887742
            ],
            [
              91.6914451,
              26.1887982
            ],
            [
              91.6914985,
              26.1887777
            ],
            [
              91.6915233,
              26.1886903
            ],
            [
              91.6917046,
              26.1886784
            ],
            [
              91.691758,
              26.1892571
            ],
            [
              91.6915646,
              26.1892714
            ],
            [
              91.6915391,
              26.1892036
            ],
            [
              91.6914651,
              26.1891843
            ],
            [
              91.6914165,
              26.1892211
            ],
            [
              91.6913955,
              26.1892811
            ],
            [
              91.6912085,
              26.1892913
            ]
          ]
        ]
      },
      "id": "way/684576024"
    },
    {
      "type": "Feature",
      "properties": {
        "@id": "way/912248048",
        "building": "dormitory",
        "name": "Disang Hostel",
        "residential": "dormitory"
      },
      "geometry": {
        "type": "Polygon",
        "coordinates": [
          [
            [
              91.6958705,
              26.1869218
            ],
            [
              91.6958674,
              26.1860399
            ],
            [
              91.6977854,
              26.1860371
            ],
            [
              91.6977728,
              26.1869218
            ],
            [
              91.6958705,
              26.1869218
            ]
          ]
        ]
      },
      "id": "way/912248048"
    },
    {
      "type": "Feature",
      "properties": {
        "@id": "way/912248049",
        "landuse": "residential",
        "residential": "apartments"
      },
      "geometry": {
        "type": "Polygon",
        "coordinates": [
          [
            [
              91.6958581,
              26.1856371
            ],
            [
              91.6958403,
              26.1847821
            ],
            [
              91.6960691,
              26.1847781
            ],
            [
              91.6960824,
              26.1856371
            ],
            [
              91.6958581,
              26.1856371
            ]
          ]
        ]
      },
      "id": "way/912248049"
    },
    {
      "type": "Feature",
      "properties": {
        "@id": "way/912248050",
        "landuse": "residential",
        "name": "Dhansiri Hostel",
        "residential": "dormitory"
      },
      "geometry": {
        "type": "Polygon",
        "coordinates": [
          [
            [
              91.6977942,
              26.1945648
            ],
            [
              91.6978965,
              26.1938436
            ],
            [
              91.6981771,
              26.1938751
            ],
            [
              91.6981303,
              26.1940954
            ],
            [
              91.6982209,
              26.1941137
            ],
            [
              91.6982501,
              26.1938357
            ],
            [
              91.6988902,
              26.1938934
            ],
            [
              91.6988376,
              26.1943288
            ],
            [
              91.6985717,
              26.1942999
            ],
            [
              91.6985512,
              26.1946671
            ],
            [
              91.6977942,
              26.1945648
            ]
          ]
        ]
      },
      "id": "way/912248050"
    },
    {
      "type": "Feature",
      "properties": {
        "@id": "way/912248051",
        "building": "yes"
      },
      "geometry": {
        "type": "Polygon",
        "coordinates": [
          [
            [
              91.6943074,
              26.189155
            ],
            [
              91.6943726,
              26.1889722
            ],
            [
              91.6944459,
              26.1889868
            ],
            [
              91.6943807,
              26.1891769
            ],
            [
              91.6943074,
              26.189155
            ]
          ]
        ]
      },
      "id": "way/912248051"
    },
    {
      "type": "Feature",
      "properties": {
        "@id": "way/912248052",
        "building": "yes",
        "name": "Planning and Management Section"
      },
      "geometry": {
        "type": "Polygon",
        "coordinates": [
          [
            [
              91.694522,
              26.1891038
            ],
            [
              91.694484,
              26.1888284
            ],
            [
              91.6945464,
              26.1888016
            ],
            [
              91.6946578,
              26.1887748
            ],
            [
              91.6948181,
              26.1887675
            ],
            [
              91.6948697,
              26.1890624
            ],
            [
              91.6947637,
              26.1890989
            ],
            [
              91.6946497,
              26.189116
            ],
            [
              91.694522,
              26.1891038
            ]
          ]
        ]
      },
      "id": "way/912248052"
    },
    {
      "type": "Feature",
      "properties": {
        "@id": "way/912248053",
        "building": "yes"
      },
      "geometry": {
        "type": "Polygon",
        "coordinates": [
          [
            [
              91.6929477,
              26.1880192
            ],
            [
              91.6930064,
              26.1875593
            ],
            [
              91.6932874,
              26.1876091
            ],
            [
              91.693204,
              26.1880552
            ],
            [
              91.6929477,
              26.1880192
            ]
          ]
        ]
      },
      "id": "way/912248053"
    },
    {
      "type": "Feature",
      "properties": {
        "@id": "way/912248054",
        "building": "yes",
        "name": "Core 5"
      },
      "geometry": {
        "type": "Polygon",
        "coordinates": [
          [
            [
              91.6891221,
              26.1859446
            ],
            [
              91.6891249,
              26.1858556
            ],
            [
              91.6890952,
              26.1858531
            ],
            [
              91.6890966,
              26.1857846
            ],
            [
              91.6891249,
              26.1857859
            ],
            [
              91.6891164,
              26.1855603
            ],
            [
              91.6890882,
              26.1855615
            ],
            [
              91.6890825,
              26.185488
            ],
            [
              91.6891136,
              26.185488
            ],
            [
              91.6891108,
              26.1853967
            ],
            [
              91.6896575,
              26.1853904
            ],
            [
              91.689649,
              26.1855881
            ],
            [
              91.6895798,
              26.1855869
            ],
            [
              91.6895784,
              26.1856287
            ],
            [
              91.6896165,
              26.1856566
            ],
            [
              91.6896547,
              26.1857301
            ],
            [
              91.6896434,
              26.1858151
            ],
            [
              91.6896151,
              26.1858683
            ],
            [
              91.6895628,
              26.1859152
            ],
            [
              91.6895063,
              26.1859292
            ],
            [
              91.6894371,
              26.1859304
            ],
            [
              91.6893651,
              26.1859051
            ],
            [
              91.6893255,
              26.1858721
            ],
            [
              91.6893001,
              26.1858784
            ],
            [
              91.6892957,
              26.1859407
            ],
            [
              91.6891221,
              26.1859446
            ]
          ]
        ]
      },
      "id": "way/912248054"
    },
    {
      "type": "Feature",
      "properties": {
        "@id": "way/912248055",
        "building": "yes"
      },
      "geometry": {
        "type": "Polygon",
        "coordinates": [
          [
            [
              91.6889784,
              26.1852147
            ],
            [
              91.688982,
              26.1846885
            ],
            [
              91.6892302,
              26.184682
            ],
            [
              91.6892482,
              26.1850017
            ],
            [
              91.6895792,
              26.1849952
            ],
            [
              91.6895936,
              26.1852083
            ],
            [
              91.6889784,
              26.1852147
            ]
          ]
        ]
      },
      "id": "way/912248055"
    },
    {
      "type": "Feature",
      "properties": {
        "@id": "way/912248056",
        "building": "yes"
      },
      "geometry": {
        "type": "Polygon",
        "coordinates": [
          [
            [
              91.6929011,
              26.186098
            ],
            [
              91.6928084,
              26.1858676
            ],
            [
              91.6929843,
              26.1858142
            ],
            [
              91.6930936,
              26.1860489
            ],
            [
              91.6929011,
              26.186098
            ]
          ]
        ]
      },
      "id": "way/912248056"
    },
    {
      "type": "Feature",
      "properties": {
        "@id": "way/912248057",
        "building": "yes"
      },
      "geometry": {
        "type": "Polygon",
        "coordinates": [
          [
            [
              91.694412,
              26.1858189
            ],
            [
              91.6943983,
              26.1857202
            ],
            [
              91.694616,
              26.185714
            ],
            [
              91.6946068,
              26.1855536
            ],
            [
              91.6945839,
              26.1855042
            ],
            [
              91.6945908,
              26.1854549
            ],
            [
              91.6946343,
              26.1854343
            ],
            [
              91.6946824,
              26.1854302
            ],
            [
              91.6947237,
              26.1854487
            ],
            [
              91.6947466,
              26.1854857
            ],
            [
              91.6947466,
              26.1855454
            ],
            [
              91.6947236,
              26.1855877
            ],
            [
              91.6947764,
              26.185603
            ],
            [
              91.6950308,
              26.1856071
            ],
            [
              91.6950308,
              26.1856585
            ],
            [
              91.6950995,
              26.1856606
            ],
            [
              91.6951018,
              26.1857839
            ],
            [
              91.6950445,
              26.185786
            ],
            [
              91.6950491,
              26.1858621
            ],
            [
              91.6949575,
              26.18586
            ],
            [
              91.6947535,
              26.1858559
            ],
            [
              91.6947466,
              26.1859012
            ],
            [
              91.6947764,
              26.1859608
            ],
            [
              91.6947558,
              26.1860205
            ],
            [
              91.6946664,
              26.186039
            ],
            [
              91.6946091,
              26.186004
            ],
            [
              91.6946045,
              26.18593
            ],
            [
              91.6946366,
              26.1858909
            ],
            [
              91.6946297,
              26.1858086
            ],
            [
              91.694412,
              26.1858189
            ]
          ]
        ]
      },
      "id": "way/912248057"
    },
    {
      "type": "Feature",
      "properties": {
        "@id": "way/912248058",
        "amenity": "post_office",
        "building": "yes"
      },
      "geometry": {
        "type": "Polygon",
        "coordinates": [
          [
            [
              91.696056,
              26.1834623
            ],
            [
              91.6962034,
              26.1833739
            ],
            [
              91.6962522,
              26.1834431
            ],
            [
              91.6962291,
              26.1834554
            ],
            [
              91.6962445,
              26.1834931
            ],
            [
              91.6961562,
              26.1835385
            ],
            [
              91.6961374,
              26.1835123
            ],
            [
              91.6961091,
              26.1835316
            ],
            [
              91.696056,
              26.1834623
            ]
          ]
        ]
      },
      "id": "way/912248058"
    },
    {
      "type": "Feature",
      "properties": {
        "@id": "way/1236294853",
        "landuse": "residential",
        "name": "Married Scholars Hostel"
      },
      "geometry": {
        "type": "Polygon",
        "coordinates": [
          [
            [
              91.6979213,
              26.1956926
            ],
            [
              91.6981067,
              26.1946508
            ],
            [
              91.6985836,
              26.1947019
            ],
            [
              91.6986135,
              26.1943683
            ],
            [
              91.6988564,
              26.1944002
            ],
            [
              91.6986116,
              26.1956858
            ],
            [
              91.6984192,
              26.195664
            ],
            [
              91.6984136,
              26.1957595
            ],
            [
              91.6979213,
              26.1956926
            ]
          ]
        ]
      },
      "id": "way/1236294853"
    },
    {
      "type": "Feature",
      "properties": {
        "@id": "way/1336870219",
        "building": "dormitory",
        "latitude": "26.1913613",
        "longitude": "91.7008015",
        "name": "Gaurang Hostel",
        "operator": "IIT Guwahati",
        "website": "https://www.iitg.ac.in/"
      },
      "geometry": {
        "type": "Polygon",
        "coordinates": [
          [
            [
              91.7012822,
              26.1921976
            ],
            [
              91.7008843,
              26.1923332
            ],
            [
              91.7004668,
              26.1921302
            ],
            [
              91.7005419,
              26.1913119
            ],
            [
              91.7013143,
              26.1913312
            ],
            [
              91.7012822,
              26.1921976
            ]
          ]
        ]
      },
      "id": "way/1336870219"
    },
    {
      "type": "Feature",
      "properties": {
        "@id": "way/121455959",
        "building": "retail",
        "building:levels": "1",
        "name": "Shopping Complex",
        "@relations": [
          {
            "role": "outer",
            "rel": 1661274,
            "reltags": {
              "building": "retail",
              "building:levels": "2",
              "type": "multipolygon"
            }
          }
        ]
      },
      "geometry": {
        "type": "Polygon",
        "coordinates": [
          [
            [
              91.6877961,
              26.1949805
            ],
            [
              91.6879706,
              26.1948955
            ],
            [
              91.6880439,
              26.1950037
            ],
            [
              91.6878629,
              26.1950946
            ],
            [
              91.6877961,
              26.1949805
            ]
          ]
        ]
      },
      "id": "way/121455959"
    }
  ]
}